{"type": "FeatureCollection", "features": [ {"type": "Feature", "properties": {"norad_id": 41556, "name": "ZIYUAN 3-02 (ZY 3-02)", "group": "resource", "lat": -54.18767805733913, "lon": 78.37651100426098, "alt_km": 508.89484511699084, "timestamp": "2025-12-19T22:41:52.036417+00:00", "meta": {"OBJECT_NAME": "ZIYUAN 3-02 (ZY 3-02)", "OBJECT_ID": "2016-033A", "EPOCH": "2025-12-19T18:12:08.980128", "MEAN_MOTION": 15.21149804, "ECCENTRICITY": 0.0011011, "INCLINATION": 97.4042, "RA_OF_ASC_NODE": 67.8094, "ARG_OF_PERICENTER": 219.8188, "MEAN_ANOMALY": 140.224, "EPHEMERIS_TYPE": 0, "CLASSIFICATION_TYPE": "U", "NORAD_CAT_ID": 41556, "ELEMENT_SET_NO": 999, "REV_AT_EPOCH": 53070, "BSTAR": 0.00024585, "MEAN_MOTION_DOT": 5.415e-05, "MEAN_MOTION_DDOT": 0}, "tle": {"line1": "1 41556U 16033A   25353.75843727  .00005415  00000+0  24585-3 0  9996", "line2": "2 41556  97.4042  67.8094 0011011 219.8188 140.2240 15.21149804530707"}}, "geometry": {"type": "Point", "coordinates": [78.37651100426098, -54.18767805733913]}}, {"type": "Feature", "properties": {"norad_id": 41599, "name": "CARTOSAT-2C", "group": "resource", "lat": -14.596845607904637, "lon": -130.83745884298597, "alt_km": 520.0226982602508, "timestamp": "2025-12-19T22:41:52.036427+00:00", "meta": {"OBJECT_NAME": "CARTOSAT-2C", "OBJECT_ID": "2016-040A", "EPOCH": "2025-12-19T18:40:58.014336", "MEAN_MOTION": 15.19172594, "ECCENTRICITY": 0.0011144, "INCLINATION": 97.4761, "RA_OF_ASC_NODE": 50.9568, "ARG_OF_PERICENTER": 40.8852, "MEAN_ANOMALY": 319.3216, "EPHEMERIS_TYPE": 0, "CLASSIFICATION_TYPE": "U", "NORAD_CAT_ID": 41599, "ELEMENT_SET_NO": 999, "REV_AT_EPOCH": 52647, "BSTAR": 0.00011694, "MEAN_MOTION_DOT": 2.393e-05, "MEAN_MOTION_DDOT": 0}, "tle": {"line1": "1 41599U 16040A   25353.77844924  .00002393  00000+0  11694-3 0  9992", "line2": "2 41599  97.4761  50.9568 0011144  40.8852 319.3216 15.19172594526478"}}, "geometry": {"type": "Point", "coordinates": [-130.83745884298597, -14.596845607904637]}}, {"type": "Feature", "properties": {"norad_id": 41601, "name": "SKYSAT-C1", "group": "resource", "lat": -56.974753153586434, "lon": -160.31248527023422, "alt_km": 475.26626867495816, "timestamp": "2025-12-19T22:41:52.036437+00:00", "meta": {"OBJECT_NAME": "SKYSAT-C1", "OBJECT_ID": "2016-040C", "EPOCH": "2025-12-19T13:49:47.529120", "MEAN_MOTION": 15.32708118, "ECCENTRICITY": 0.000158, "INCLINATION": 96.9813, "RA_OF_ASC_NODE": 30.2048, "ARG_OF_PERICENTER": 351.0695, "MEAN_ANOMALY": 9.052, "EPHEMERIS_TYPE": 0, "CLASSIFICATION_TYPE": "U", "NORAD_CAT_ID": 41601, "ELEMENT_SET_NO": 999, "REV_AT_EPOCH": 53032, "BSTAR": 0.00021842, "MEAN_MOTION_DOT": 6.827e-05, "MEAN_MOTION_DDOT": 0}, "tle": {"line1": "1 41601U 16040C   25353.57624455  .00006827  00000+0  21842-3 0  9991", "line2": "2 41601  96.9813  30.2048 0001580 351.0695   9.0520 15.32708118530325"}}, "geometry": {"type": "Point", "coordinates": [-160.31248527023422, -56.974753153586434]}}, {"type": "Feature", "properties": {"norad_id": 41603, "name": "LAPAN-A3", "group": "resource", "lat": -6.422357068427115, "lon": -7.951284525540747, "alt_km": 470.8726148661153, "timestamp": "2025-12-19T22:41:52.036467+00:00", "meta": {"OBJECT_NAME": "LAPAN-A3", "OBJECT_ID": "2016-040E", "EPOCH": "2025-12-19T18:01:19.002432", "MEAN_MOTION": 15.31604877, "ECCENTRICITY": 0.0008998, "INCLINATION": 97.1423, "RA_OF_ASC_NODE": 351.0522, "ARG_OF_PERICENTER": 305.4801, "MEAN_ANOMALY": 54.5601, "EPHEMERIS_TYPE": 0, "CLASSIFICATION_TYPE": "U", "NORAD_CAT_ID": 41603, "ELEMENT_SET_NO": 999, "REV_AT_EPOCH": 52733, "BSTAR": 9.4957e-05, "MEAN_MOTION_DOT": 2.827e-05, "MEAN_MOTION_DDOT": 0}, "tle": {"line1": "1 41603U 16040E   25353.75091438  .00002827  00000+0  94957-4 0  9996", "line2": "2 41603  97.1423 351.0522 0008998 305.4801  54.5601 15.31604877527338"}}, "geometry": {"type": "Point", "coordinates": [-7.951284525540747, -6.422357068427115]}}, {"type": "Feature", "properties": {"norad_id": 41604, "name": "BIROS", "group": "resource", "lat": -78.85741016616774, "lon": 64.73294497313958, "alt_km": 304.8611409325422, "timestamp": "2025-12-19T22:41:52.036490+00:00", "meta": {"OBJECT_NAME": "BIROS", "OBJECT_ID": "2016-040F", "EPOCH": "2025-12-19T01:55:23.148192", "MEAN_MOTION": 15.92127149, "ECCENTRICITY": 0.00035441, "INCLINATION": 97.0685, "RA_OF_ASC_NODE": 24.7778, "ARG_OF_PERICENTER": 134.1983, "MEAN_ANOMALY": 225.9584, "EPHEMERIS_TYPE": 0, "CLASSIFICATION_TYPE": "U", "NORAD_CAT_ID": 41604, "ELEMENT_SET_NO": 999, "REV_AT_EPOCH": 52973, "BSTAR": 0.00053351864, "MEAN_MOTION_DOT": 0.00176218, "MEAN_MOTION_DDOT": 1.3459503e-05}, "tle": {"line1": "1 41604U 16040F   25353.08012903  .00176218  13460-4  53352-3 0  9991", "line2": "2 41604  97.0685  24.7778 0003544 134.1983 225.9584 15.92127149529734"}}, "geometry": {"type": "Point", "coordinates": [64.73294497313958, -78.85741016616774]}}, {"type": "Feature", "properties": {"norad_id": 41727, "name": "GAOFEN-3", "group": "resource", "lat": -23.253863115602574, "lon": 3.0641775844321186, "alt_km": 756.4682250853057, "timestamp": "2025-12-19T22:41:52.036503+00:00", "meta": {"OBJECT_NAME": "GAOFEN-3", "OBJECT_ID": "2016-049A", "EPOCH": "2025-12-19T17:48:40.951296", "MEAN_MOTION": 14.42214822, "ECCENTRICITY": 0.0001267, "INCLINATION": 98.4032, "RA_OF_ASC_NODE": 359.2218, "ARG_OF_PERICENTER": 57.6531, "MEAN_ANOMALY": 302.4781, "EPHEMERIS_TYPE": 0, "CLASSIFICATION_TYPE": "U", "NORAD_CAT_ID": 41727, "ELEMENT_SET_NO": 999, "REV_AT_EPOCH": 49278, "BSTAR": -8.0238e-06, "MEAN_MOTION_DOT": -7e-07, "MEAN_MOTION_DDOT": 0}, "tle": {"line1": "1 41727U 16049A   25353.74214064 -.00000070  00000+0 -80238-5 0  9991", "line2": "2 41727  98.4032 359.2218 0001267  57.6531 302.4781 14.42214822492787"}}, "geometry": {"type": "Point", "coordinates": [3.0641775844321186, -23.253863115602574]}}, {"type": "Feature", "properties": {"norad_id": 41771, "name": "SKYSAT-C4", "group": "resource", "lat": 63.03928975738799, "lon": 4.936310656454996, "alt_km": 432.1465569546417, "timestamp": "2025-12-19T22:41:52.036515+00:00", "meta": {"OBJECT_NAME": "SKYSAT-C4", "OBJECT_ID": "2016-058B", "EPOCH": "2025-12-19T00:37:25.370976", "MEAN_MOTION": 15.42424103, "ECCENTRICITY": 0.00020919, "INCLINATION": 96.9363, "RA_OF_ASC_NODE": 17.9086, "ARG_OF_PERICENTER": 130.2828, "MEAN_ANOMALY": 229.8603, "EPHEMERIS_TYPE": 0, "CLASSIFICATION_TYPE": "U", "NORAD_CAT_ID": 41771, "ELEMENT_SET_NO": 999, "REV_AT_EPOCH": 51764, "BSTAR": 0.00028649124, "MEAN_MOTION_DOT": 0.00012311, "MEAN_MOTION_DDOT": 0}, "tle": {"line1": "1 41771U 16058B   25353.02598809  .00012311  00000+0  28649-3 0  9998", "line2": "2 41771  96.9363  17.9086 0002091 130.2828 229.8603 15.42424103517644"}}, "geometry": {"type": "Point", "coordinates": [4.936310656454996, 63.03928975738799]}}, {"type": "Feature", "properties": {"norad_id": 41772, "name": "SKYSAT-C5", "group": "resource", "lat": 54.22059454472254, "lon": -132.67915967240427, "alt_km": 460.6189027397759, "timestamp": "2025-12-19T22:41:52.036525+00:00", "meta": {"OBJECT_NAME": "SKYSAT-C5", "OBJECT_ID": "2016-058C", "EPOCH": "2025-12-19T09:37:46.106976", "MEAN_MOTION": 15.33990417, "ECCENTRICITY": 0.0003766, "INCLINATION": 97.075, "RA_OF_ASC_NODE": 36.8752, "ARG_OF_PERICENTER": 260.952, "MEAN_ANOMALY": 99.1298, "EPHEMERIS_TYPE": 0, "CLASSIFICATION_TYPE": "U", "NORAD_CAT_ID": 41772, "ELEMENT_SET_NO": 999, "REV_AT_EPOCH": 51618, "BSTAR": 0.00022283, "MEAN_MOTION_DOT": 7.254e-05, "MEAN_MOTION_DDOT": 0}, "tle": {"line1": "1 41772U 16058C   25353.40122809  .00007254  00000+0  22283-3 0  9992", "line2": "2 41772  97.0750  36.8752 0003766 260.9520  99.1298 15.33990417516189"}}, "geometry": {"type": "Point", "coordinates": [-132.67915967240427, 54.22059454472254]}}, {"type": "Feature", "properties": {"norad_id": 41773, "name": "SKYSAT-C2", "group": "resource", "lat": -38.94308297615318, "lon": -167.55997890726314, "alt_km": 462.4759779735141, "timestamp": "2025-12-19T22:41:52.036535+00:00", "meta": {"OBJECT_NAME": "SKYSAT-C2", "OBJECT_ID": "2016-058D", "EPOCH": "2025-12-18T23:52:40.992960", "MEAN_MOTION": 15.37407901, "ECCENTRICITY": 0.00035522, "INCLINATION": 97.0351, "RA_OF_ASC_NODE": 17.257, "ARG_OF_PERICENTER": 17.3368, "MEAN_ANOMALY": 342.7999, "EPHEMERIS_TYPE": 0, "CLASSIFICATION_TYPE": "U", "NORAD_CAT_ID": 41773, "ELEMENT_SET_NO": 999, "REV_AT_EPOCH": 51732, "BSTAR": 0.0002611674, "MEAN_MOTION_DOT": 9.504e-05, "MEAN_MOTION_DDOT": 0}, "tle": {"line1": "1 41773U 16058D   25352.99491890  .00009504  00000+0  26117-3 0  9995", "line2": "2 41773  97.0351  17.2570 0003552  17.3368 342.7999 15.37407901517322"}}, "geometry": {"type": "Point", "coordinates": [-167.55997890726314, -38.94308297615318]}}, {"type": "Feature", "properties": {"norad_id": 41774, "name": "SKYSAT-C3", "group": "resource", "lat": -53.07044403727702, "lon": -161.95416194068022, "alt_km": 440.2947229899919, "timestamp": "2025-12-19T22:41:52.036546+00:00", "meta": {"OBJECT_NAME": "SKYSAT-C3", "OBJECT_ID": "2016-058E", "EPOCH": "2025-12-19T01:28:38.745984", "MEAN_MOTION": 15.44615791, "ECCENTRICITY": 0.00018725, "INCLINATION": 96.9289, "RA_OF_ASC_NODE": 26.5138, "ARG_OF_PERICENTER": 107.4205, "MEAN_ANOMALY": 252.725, "EPHEMERIS_TYPE": 0, "CLASSIFICATION_TYPE": "U", "NORAD_CAT_ID": 41774, "ELEMENT_SET_NO": 999, "REV_AT_EPOCH": 51823, "BSTAR": 0.00033013683, "MEAN_MOTION_DOT": 0.00015292, "MEAN_MOTION_DDOT": 0}, "tle": {"line1": "1 41774U 16058E   25353.06155956  .00015292  00000+0  33014-3 0  9990", "line2": "2 41774  96.9289  26.5138 0001872 107.4205 252.7250 15.44615791518235"}}, "geometry": {"type": "Point", "coordinates": [-161.95416194068022, -53.07044403727702]}}]}